start=new Date('2023-02-28T00:00:00.000Z').valueOf();
sats=[{"APOAPSIS":"564.850","COUNTRY_CODE":"US","EPHEMERIS_TYPE":"0","TLE_LINE2":"2 53074  97.6534 241.2317 0002694  89.7993 270.3539 15.01270390 34960","MEAN_MOTION":"15.01270390","ELEMENT_SET_NO":"999","EPOCH":"2023-02-27T13:42:16.213536","TIME_SYSTEM":"UTC","ECCENTRICITY":"0.00026940","FILE":"3846812","DECAY_DATE":null,"MEAN_ANOMALY":"270.3539","SITE":"AFWTR","TLE_LINE1":"1 53074U 22077AH  23058.57102099  .00002613  00000-0  20788-3 0  9998","RA_OF_ASC_NODE":"241.2317","SEMIMAJOR_AXIS":"6941.115","PERIOD":"95.919","NORAD_CAT_ID":"53074","REF_FRAME":"TEME","MEAN_ELEMENT_THEORY":"SGP4","CENTER_NAME":"EARTH","BSTAR":"0.00020788000000","MEAN_MOTION_DOT":"0.00002613","MEAN_MOTION_DDOT":"0.0000000000000","OBJECT_ID":"2022-077AH","OBJECT_NAME":"STARLINK-4310","RCS_SIZE":"LARGE","GP_ID":"227195526","LAUNCH_DATE":"2022-07-11","PERIAPSIS":"561.110","CLASSIFICATION_TYPE":"U","OBJECT_TYPE":"PAYLOAD","REV_AT_EPOCH":"3496","ARG_OF_PERICENTER":"89.7993","INCLINATION":"97.6534"},{"ECCENTRICITY":"0.00019960","ELEMENT_SET_NO":"999","EPOCH":"2023-02-27T11:55:37.897824","TIME_SYSTEM":"UTC","MEAN_MOTION":"15.01262870","TLE_LINE2":"2 53075  97.6519 241.1523 0001996  90.0048 270.1405 15.01262870 34955","APOAPSIS":"564.388","COUNTRY_CODE":"US","EPHEMERIS_TYPE":"0","PERIOD":"95.919","RA_OF_ASC_NODE":"241.1523","SEMIMAJOR_AXIS":"6941.138","TLE_LINE1":"1 53075U 22077AJ  23058.49696641  .00001187  00000-0  96957-4 0  9998","SITE":"AFWTR","MEAN_ANOMALY":"270.1405","DECAY_DATE":null,"FILE":"3846396","OBJECT_NAME":"STARLINK-4348","MEAN_MOTION_DDOT":"0.0000000000000","OBJECT_ID":"2022-077AJ","MEAN_MOTION_DOT":"0.00001187","BSTAR":"0.00009695700000","CENTER_NAME":"EARTH","MEAN_ELEMENT_THEORY":"SGP4","REF_FRAME":"TEME","NORAD_CAT_ID":"53075","ARG_OF_PERICENTER":"90.0048","INCLINATION":"97.6519","OBJECT_TYPE":"PAYLOAD","REV_AT_EPOCH":"3495","CLASSIFICATION_TYPE":"U","LAUNCH_DATE":"2022-07-11","PERIAPSIS":"561.618","GP_ID":"227159083","RCS_SIZE":"LARGE"},{"TLE_LINE2":"2 53076  97.6535 241.4259 0002444  89.0768 271.0737 15.01268879 34996","MEAN_MOTION":"15.01268879","APOAPSIS":"564.681","EPHEMERIS_TYPE":"0","COUNTRY_CODE":"US","ECCENTRICITY":"0.00024440","EPOCH":"2023-02-27T18:27:11.384064","ELEMENT_SET_NO":"999","TIME_SYSTEM":"UTC","MEAN_ANOMALY":"271.0737","SITE":"AFWTR","FILE":"3846812","DECAY_DATE":null,"PERIOD":"95.919","TLE_LINE1":"1 53076U 22077AK  23058.76888176  .00001958  00000-0  15697-3 0  9992","RA_OF_ASC_NODE":"241.4259","SEMIMAJOR_AXIS":"6941.119","MEAN_ELEMENT_THEORY":"SGP4","CENTER_NAME":"EARTH","REF_FRAME":"TEME","BSTAR":"0.00015697000000","NORAD_CAT_ID":"53076","OBJECT_NAME":"STARLINK-4347","MEAN_MOTION_DOT":"0.00001958","MEAN_MOTION_DDOT":"0.0000000000000","OBJECT_ID":"2022-077AK","PERIAPSIS":"561.288","LAUNCH_DATE":"2022-07-11","RCS_SIZE":"LARGE","GP_ID":"227196029","OBJECT_TYPE":"PAYLOAD","REV_AT_EPOCH":"3499","INCLINATION":"97.6535","ARG_OF_PERICENTER":"89.0768","CLASSIFICATION_TYPE":"U"},{"NORAD_CAT_ID":"53077","CENTER_NAME":"EARTH","MEAN_ELEMENT_THEORY":"SGP4","REF_FRAME":"TEME","BSTAR":"0.00014971000000","MEAN_MOTION_DOT":"0.00001865","OBJECT_ID":"2022-077AL","MEAN_MOTION_DDOT":"0.0000000000000","OBJECT_NAME":"STARLINK-4315","RCS_SIZE":"LARGE","GP_ID":"227194778","LAUNCH_DATE":"2022-07-11","PERIAPSIS":"561.660","CLASSIFICATION_TYPE":"U","REV_AT_EPOCH":"3496","OBJECT_TYPE":"PAYLOAD","ARG_OF_PERICENTER":"92.3324","INCLINATION":"97.6522","COUNTRY_CODE":"US","EPHEMERIS_TYPE":"0","APOAPSIS":"564.297","TLE_LINE2":"2 53077  97.6522 241.2135 0001900  92.3324 267.8118 15.01270792 34965","MEAN_MOTION":"15.01270792","TIME_SYSTEM":"UTC","EPOCH":"2023-02-27T13:28:35.181120","ELEMENT_SET_NO":"999","ECCENTRICITY":"0.00019000","FILE":"3846812","DECAY_DATE":null,"MEAN_ANOMALY":"267.8118","SITE":"AFWTR","TLE_LINE1":"1 53077U 22077AL  23058.56151830  .00001865  00000-0  14971-3 0  9992","SEMIMAJOR_AXIS":"6941.114","RA_OF_ASC_NODE":"241.2135","PERIOD":"95.919"},{"OBJECT_NAME":"STARLINK-4322","MEAN_MOTION_DOT":"0.00005376","OBJECT_ID":"2022-077AM","MEAN_MOTION_DDOT":"0.0000000000000","REF_FRAME":"TEME","MEAN_ELEMENT_THEORY":"SGP4","CENTER_NAME":"EARTH","BSTAR":"0.00042248000000","NORAD_CAT_ID":"53078","REV_AT_EPOCH":"3499","OBJECT_TYPE":"PAYLOAD","ARG_OF_PERICENTER":"87.9011","INCLINATION":"97.6537","CLASSIFICATION_TYPE":"U","LAUNCH_DATE":"2022-07-11","PERIAPSIS":"561.222","GP_ID":"227195028","RCS_SIZE":"LARGE","ECCENTRICITY":"0.00024500","TIME_SYSTEM":"UTC","ELEMENT_SET_NO":"999","EPOCH":"2023-02-27T18:21:51.632352","TLE_LINE2":"2 53078  97.6537 241.4196 0002450  87.9011 272.2493 15.01288852 34990","MEAN_MOTION":"15.01288852","COUNTRY_CODE":"US","EPHEMERIS_TYPE":"0","APOAPSIS":"564.623","PERIOD":"95.918","TLE_LINE1":"1 53078U 22077AM  23058.76518093  .00005376  00000-0  42248-3 0  9992","SEMIMAJOR_AXIS":"6941.058","RA_OF_ASC_NODE":"241.4196","MEAN_ANOMALY":"272.2493","SITE":"AFWTR","FILE":"3846812","DECAY_DATE":null},{"GP_ID":"227195779","RCS_SIZE":"LARGE","PERIAPSIS":"561.888","LAUNCH_DATE":"2022-07-11","CLASSIFICATION_TYPE":"U","REV_AT_EPOCH":"3499","OBJECT_TYPE":"PAYLOAD","ARG_OF_PERICENTER":"97.2923","INCLINATION":"97.6518","NORAD_CAT_ID":"53079","CENTER_NAME":"EARTH","REF_FRAME":"TEME","MEAN_ELEMENT_THEORY":"SGP4","BSTAR":"0.00014393000000","MEAN_MOTION_DOT":"0.00001791","OBJECT_ID":"2022-077AN","MEAN_MOTION_DDOT":"0.0000000000000","OBJECT_NAME":"STARLINK-4327","FILE":"3846812","DECAY_DATE":null,"MEAN_ANOMALY":"262.8481","SITE":"AFWTR","TLE_LINE1":"1 53079U 22077AN  23058.75962338  .00001791  00000-0  14393-3 0  9994","SEMIMAJOR_AXIS":"6941.121","RA_OF_ASC_NODE":"241.4083","PERIOD":"95.919","EPHEMERIS_TYPE":"0","COUNTRY_CODE":"US","APOAPSIS":"564.083","TLE_LINE2":"2 53079  97.6518 241.4083 0001581  97.2923 262.8481 15.01268422 34998","MEAN_MOTION":"15.01268422","TIME_SYSTEM":"UTC","EPOCH":"2023-02-27T18:13:51.460032","ELEMENT_SET_NO":"999","ECCENTRICITY":"0.00015810"},{"LAUNCH_DATE":"2022-07-11","PERIAPSIS":"561.633","GP_ID":"227196529","RCS_SIZE":"MEDIUM","OBJECT_TYPE":"PAYLOAD","REV_AT_EPOCH":"3499","ARG_OF_PERICENTER":"91.4778","INCLINATION":"97.6518","CLASSIFICATION_TYPE":"U","CENTER_NAME":"EARTH","MEAN_ELEMENT_THEORY":"SGP4","REF_FRAME":"TEME","BSTAR":"0.00004167300000","NORAD_CAT_ID":"53080","OBJECT_NAME":"STARLINK-4330","MEAN_MOTION_DOT":"0.00000476","MEAN_MOTION_DDOT":"0.0000000000000","OBJECT_ID":"2022-077AP","MEAN_ANOMALY":"268.6669","SITE":"AFWTR","FILE":"3846812","DECAY_DATE":null,"PERIOD":"95.919","TLE_LINE1":"1 53080U 22077AP  23058.76332467  .00000476  00000-0  41673-4 0  9992","RA_OF_ASC_NODE":"241.4139","SEMIMAJOR_AXIS":"6941.116","TLE_LINE2":"2 53080  97.6518 241.4139 0001942  91.4778 268.6669 15.01270069 34999","MEAN_MOTION":"15.01270069","APOAPSIS":"564.329","COUNTRY_CODE":"US","EPHEMERIS_TYPE":"0","ECCENTRICITY":"0.00019420","EPOCH":"2023-02-27T18:19:11.251488","ELEMENT_SET_NO":"999","TIME_SYSTEM":"UTC"},{"DECAY_DATE":null,"FILE":"3846812","SITE":"AFWTR","MEAN_ANOMALY":"256.9974","SEMIMAJOR_AXIS":"6941.118","RA_OF_ASC_NODE":"241.4002","TLE_LINE1":"1 53081U 22077AQ  23058.75616596  .00001850  00000-0  14852-3 0  9995","PERIOD":"95.919","COUNTRY_CODE":"US","EPHEMERIS_TYPE":"0","APOAPSIS":"563.995","MEAN_MOTION":"15.01269466","TLE_LINE2":"2 53081  97.6540 241.4002 0001459 103.1413 256.9974 15.01269466 34992","TIME_SYSTEM":"UTC","ELEMENT_SET_NO":"999","EPOCH":"2023-02-27T18:08:52.738944","ECCENTRICITY":"0.00014590","RCS_SIZE":"LARGE","GP_ID":"227195278","PERIAPSIS":"561.970","LAUNCH_DATE":"2022-07-11","CLASSIFICATION_TYPE":"U","INCLINATION":"97.6540","ARG_OF_PERICENTER":"103.1413","REV_AT_EPOCH":"3499","OBJECT_TYPE":"PAYLOAD","NORAD_CAT_ID":"53081","BSTAR":"0.00014852000000","MEAN_ELEMENT_THEORY":"SGP4","REF_FRAME":"TEME","CENTER_NAME":"EARTH","OBJECT_ID":"2022-077AQ","MEAN_MOTION_DDOT":"0.0000000000000","MEAN_MOTION_DOT":"0.00001850","OBJECT_NAME":"STARLINK-4326"},{"TLE_LINE1":"1 53082U 22077AR  23058.55781295  .00002404  00000-0  19166-3 0  9992","RA_OF_ASC_NODE":"241.2077","SEMIMAJOR_AXIS":"6941.110","PERIOD":"95.919","FILE":"3846812","DECAY_DATE":null,"MEAN_ANOMALY":"260.4485","SITE":"AFWTR","ELEMENT_SET_NO":"999","EPOCH":"2023-02-27T13:23:15.038880","TIME_SYSTEM":"UTC","ECCENTRICITY":"0.00014830","APOAPSIS":"564.004","COUNTRY_CODE":"US","EPHEMERIS_TYPE":"0","TLE_LINE2":"2 53082  97.6525 241.2077 0001483  99.6907 260.4485 15.01272100 34963","MEAN_MOTION":"15.01272100","CLASSIFICATION_TYPE":"U","OBJECT_TYPE":"PAYLOAD","REV_AT_EPOCH":"3496","ARG_OF_PERICENTER":"99.6907","INCLINATION":"97.6525","RCS_SIZE":"LARGE","GP_ID":"227195527","LAUNCH_DATE":"2022-07-11","PERIAPSIS":"561.945","MEAN_MOTION_DOT":"0.00002404","MEAN_MOTION_DDOT":"0.0000000000000","OBJECT_ID":"2022-077AR","OBJECT_NAME":"STARLINK-4321","NORAD_CAT_ID":"53082","REF_FRAME":"TEME","MEAN_ELEMENT_THEORY":"SGP4","CENTER_NAME":"EARTH","BSTAR":"0.00019166000000"},{"LAUNCH_DATE":"2022-07-11","PERIAPSIS":"561.897","GP_ID":"227196279","RCS_SIZE":"LARGE","ARG_OF_PERICENTER":"242.3176","INCLINATION":"97.6533","OBJECT_TYPE":"PAYLOAD","REV_AT_EPOCH":"3499","CLASSIFICATION_TYPE":"U","BSTAR":"-0.00063304000000","REF_FRAME":"TEME","CENTER_NAME":"EARTH","MEAN_ELEMENT_THEORY":"SGP4","NORAD_CAT_ID":"53083","OBJECT_NAME":"STARLINK-4251","MEAN_MOTION_DDOT":"0.0000000000000","OBJECT_ID":"2022-077AS","MEAN_MOTION_DOT":"-0.00008172","SITE":"AFWTR","MEAN_ANOMALY":"117.7867","DECAY_DATE":null,"FILE":"3846812","PERIOD":"95.922","RA_OF_ASC_NODE":"241.3837","SEMIMAJOR_AXIS":"6941.271","TLE_LINE1":"1 53083U 22077AS  23058.74483776 -.00008172  00000-0 -63304-3 0  9990","MEAN_MOTION":"15.01219573","TLE_LINE2":"2 53083  97.6533 241.3837 0001785 242.3176 117.7867 15.01219573 34994","APOAPSIS":"564.375","COUNTRY_CODE":"US","EPHEMERIS_TYPE":"0","ECCENTRICITY":"0.00017850","ELEMENT_SET_NO":"999","EPOCH":"2023-02-27T17:52:33.982464","TIME_SYSTEM":"UTC"}];
